NAVSTAR 77 (USA 289)    
1 43873U 18109A   23260.11152821  .00000037  00000+0  00000+0 0  9996
2 43873  55.1961 131.8607 0025845 190.5575 340.2967  2.00569458 34935
